ONEWEB-0228             
1 48780U 21045P   23286.88908893 -.00000094  00000+0 -28245-3 0  9991
2 48780  87.8935  93.7620 0001733  84.9765 275.1563 13.15548145115833
